{
  "type": "FeatureCollection",
  "features": [
    {
      "type": "Feature",
      "properties": {
        "norad_id": 66820,
        "name": "KOMPSAT-7",
        "group": "last-30-days",
        "lat": -28.848476510468682,
        "lon": -64.98801418619618,
        "alt_km": 579.3835953575353,
        "timestamp": "2025-12-10T20:49:51.346137+00:00",
        "meta_object_name": "KOMPSAT-7",
        "meta_object_id": "2025-279A",
        "meta_epoch": "2025-12-10T08:08:20.375808",
        "meta_mean_motion": 14.98383323,
        "meta_eccentricity": 0.00094465,
        "meta_inclination": 97.6405,
        "meta_ra_of_asc_node": 290.2534,
        "meta_arg_of_pericenter": 228.7965,
        "meta_mean_anomaly": 131.2444,
        "meta_ephemeris_type": 0,
        "meta_classification_type": "U",
        "meta_norad_cat_id": 66820,
        "meta_element_set_no": 999,
        "meta_rev_at_epoch": 129,
        "meta_bstar": 0.00035620703,
        "meta_mean_motion_dot": 4.194e-05,
        "meta_mean_motion_ddot": 0,
        "tle_line1": "1 66820U 25279A   25344.33912472  .00004194  00000+0  35621-3 0  9993",
        "tle_line2": "2 66820  97.6405 290.2534 0009446 228.7965 131.2444 14.98383323  1297"
      },
      "geometry": {
        "type": "Point",
        "coordinates": [
          -64.98801418619618,
          -28.848476510468682
        ]
      }
    },
    {
      "type": "Feature",
      "properties": {
        "norad_id": 66877,
        "name": "ZQ-3 R/B",
        "group": "last-30-days",
        "lat": -33.31577388068747,
        "lon": -89.85038900894862,
        "alt_km": 149.69703276534074,
        "timestamp": "2025-12-10T20:49:51.346170+00:00",
        "meta_object_name": "ZQ-3 R/B",
        "meta_object_id": "2025-282A",
        "meta_epoch": "2025-12-10T13:11:34.975104",
        "meta_mean_motion": 14.53151085,
        "meta_eccentricity": 0.08054604,
        "meta_inclination": 56.9528,
        "meta_ra_of_asc_node": 66.0239,
        "meta_arg_of_pericenter": 216.1667,
        "meta_mean_anomaly": 138.224,
        "meta_ephemeris_type": 0,
        "meta_classification_type": "U",
        "meta_norad_cat_id": 66877,
        "meta_element_set_no": 999,
        "meta_rev_at_epoch": 107,
        "meta_bstar": 0.00026050706,
        "meta_mean_motion_dot": 0.01257378,
        "meta_mean_motion_ddot": 7.372284e-06,
        "tle_line1": "1 66877U 25282A   25344.54971036  .01257378  73723-5  26051-3 0  9993",
        "tle_line2": "2 66877  56.9528  66.0239 0805460 216.1667 138.2240 14.53151085  1070"
      },
      "geometry": {
        "type": "Point",
        "coordinates": [
          -89.85038900894862,
          -33.31577388068747
        ]
      }
    },
    {
      "type": "Feature",
      "properties": {
        "norad_id": 66906,
        "name": "1998-067XS",
        "group": "last-30-days",
        "lat": 32.69450562833106,
        "lon": -177.73500351783687,
        "alt_km": 413.58482292342524,
        "timestamp": "2025-12-10T20:49:51.346195+00:00",
        "meta_object_name": "1998-067XS",
        "meta_object_id": "1998-067XS",
        "meta_epoch": "2025-12-10T00:31:58.659744",
        "meta_mean_motion": 15.50350034,
        "meta_eccentricity": 0.0003912,
        "meta_inclination": 51.6303,
        "meta_ra_of_asc_node": 155.8936,
        "meta_arg_of_pericenter": 190.7132,
        "meta_mean_anomaly": 169.3774,
        "meta_ephemeris_type": 0,
        "meta_classification_type": "U",
        "meta_norad_cat_id": 66906,
        "meta_element_set_no": 999,
        "meta_rev_at_epoch": 119,
        "meta_bstar": 0.00063423893,
        "meta_mean_motion_dot": 0.00036365,
        "meta_mean_motion_ddot": 0,
        "tle_line1": "1 66906U 98067XS  25344.02220671  .00036365  00000+0  63424-3 0  9999",
        "tle_line2": "2 66906  51.6303 155.8936 0003912 190.7132 169.3774 15.50350034  1196"
      },
      "geometry": {
        "type": "Point",
        "coordinates": [
          -177.73500351783687,
          32.69450562833106
        ]
      }
    },
    {
      "type": "Feature",
      "properties": {
        "norad_id": 66907,
        "name": "1998-067XT",
        "group": "last-30-days",
        "lat": 39.02925941353333,
        "lon": -168.3629100879428,
        "alt_km": 411.39867451137707,
        "timestamp": "2025-12-10T20:49:51.346210+00:00",
        "meta_object_name": "1998-067XT",
        "meta_object_id": "1998-067XT",
        "meta_epoch": "2025-12-09T12:07:37.114752",
        "meta_mean_motion": 15.50864429,
        "meta_eccentricity": 0.00048036,
        "meta_inclination": 51.6307,
        "meta_ra_of_asc_node": 158.4423,
        "meta_arg_of_pericenter": 208.5081,
        "meta_mean_anomaly": 151.5646,
        "meta_ephemeris_type": 0,
        "meta_classification_type": "U",
        "meta_norad_cat_id": 66907,
        "meta_element_set_no": 999,
        "meta_rev_at_epoch": 111,
        "meta_bstar": 0.0012921241,
        "meta_mean_motion_dot": 0.00076342,
        "meta_mean_motion_ddot": 0,
        "tle_line1": "1 66907U 98067XT  25343.50529068  .00076342  00000+0  12921-2 0  9998",
        "tle_line2": "2 66907  51.6307 158.4423 0004803 208.5081 151.5646 15.50864429  1113"
      },
      "geometry": {
        "type": "Point",
        "coordinates": [
          -168.3629100879428,
          39.02925941353333
        ]
      }
    },
    {
      "type": "Feature",
      "properties": {
        "norad_id": 66908,
        "name": "1998-067XU",
        "group": "last-30-days",
        "lat": 39.88005483104565,
        "lon": -166.87173190833727,
        "alt_km": 411.02572830664394,
        "timestamp": "2025-12-10T20:49:51.346221+00:00",
        "meta_object_name": "1998-067XU",
        "meta_object_id": "1998-067XU",
        "meta_epoch": "2025-12-10T14:24:36.801216",
        "meta_mean_motion": 15.51106152,
        "meta_eccentricity": 0.00048077,
        "meta_inclination": 51.6304,
        "meta_ra_of_asc_node": 153.0048,
        "meta_arg_of_pericenter": 213.3115,
        "meta_mean_anomaly": 146.7573,
        "meta_ephemeris_type": 0,
        "meta_classification_type": "U",
        "meta_norad_cat_id": 66908,
        "meta_element_set_no": 999,
        "meta_rev_at_epoch": 128,
        "meta_bstar": 0.0015174275,
        "meta_mean_motion_dot": 0.00090678,
        "meta_mean_motion_ddot": 0,
        "tle_line1": "1 66908U 98067XU  25344.60042594  .00090678  00000+0  15174-2 0  9996",
        "tle_line2": "2 66908  51.6304 153.0048 0004807 213.3115 146.7573 15.51106152  1287"
      },
      "geometry": {
        "type": "Point",
        "coordinates": [
          -166.87173190833727,
          39.88005483104565
        ]
      }
    },
    {
      "type": "Feature",
      "properties": {
        "norad_id": 66909,
        "name": "SILVERSAT",
        "group": "last-30-days",
        "lat": 40.67633890228584,
        "lon": -165.4117285390051,
        "alt_km": 410.55383143994277,
        "timestamp": "2025-12-10T20:49:51.346231+00:00",
        "meta_object_name": "SILVERSAT",
        "meta_object_id": "1998-067XV",
        "meta_epoch": "2025-12-10T14:24:17.076960",
        "meta_mean_motion": 15.51201749,
        "meta_eccentricity": 0.00046642,
        "meta_inclination": 51.6305,
        "meta_ra_of_asc_node": 153.0034,
        "meta_arg_of_pericenter": 216.0058,
        "meta_mean_anomaly": 144.0618,
        "meta_ephemeris_type": 0,
        "meta_classification_type": "U",
        "meta_norad_cat_id": 66909,
        "meta_element_set_no": 999,
        "meta_rev_at_epoch": 128,
        "meta_bstar": 0.0015461783,
        "meta_mean_motion_dot": 0.00092744,
        "meta_mean_motion_ddot": 0,
        "tle_line1": "1 66909U 98067XV  25344.60019765  .00092744  00000+0  15462-2 0  9997",
        "tle_line2": "2 66909  51.6305 153.0034 0004664 216.0058 144.0618 15.51201749  1280"
      },
      "geometry": {
        "type": "Point",
        "coordinates": [
          -165.4117285390051,
          40.67633890228584
        ]
      }
    },
    {
      "type": "Feature",
      "properties": {
        "norad_id": 66910,
        "name": "1998-067XW",
        "group": "last-30-days",
        "lat": 44.60005268544916,
        "lon": -156.95956393609598,
        "alt_km": 409.1475365313081,
        "timestamp": "2025-12-10T20:49:51.346241+00:00",
        "meta_object_name": "1998-067XW",
        "meta_object_id": "1998-067XW",
        "meta_epoch": "2025-12-10T11:16:54.563808",
        "meta_mean_motion": 15.51350337,
        "meta_eccentricity": 0.00055419,
        "meta_inclination": 51.6299,
        "meta_ra_of_asc_node": 153.6351,
        "meta_arg_of_pericenter": 197.1967,
        "meta_mean_anomaly": 162.8836,
        "meta_ephemeris_type": 0,
        "meta_classification_type": "U",
        "meta_norad_cat_id": 66910,
        "meta_element_set_no": 999,
        "meta_rev_at_epoch": 126,
        "meta_bstar": 0.0013818348,
        "meta_mean_motion_dot": 0.00083191,
        "meta_mean_motion_ddot": 0,
        "tle_line1": "1 66910U 98067XW  25344.47007597  .00083191  00000+0  13818-2 0  9993",
        "tle_line2": "2 66910  51.6299 153.6351 0005541 197.1967 162.8836 15.51350337  1261"
      },
      "geometry": {
        "type": "Point",
        "coordinates": [
          -156.95956393609598,
          44.60005268544916
        ]
      }
    }
  ]
}